IRIDIUM 38 [-]          
1 25043U 97069E   20312.82037181  .00000089  00000-0  23668-4 0  9999
2 25043  86.4016 219.3556 0002004 125.3711 234.7673 14.36219761204387
IRIDIUM 42 [-]          
1 25077U 97077A   20312.75743214  .00000129  00000-0  38725-4 0  9993
2 25077  86.4018 223.5471 0001814 100.0803 260.0598 14.34614642199891
IRIDIUM 44 [-]          
1 25078U 97077B   20312.74424983  .00000105  00000-0  27788-4 0  9993
2 25078  86.4018 209.9661 0003314 118.7496 241.4035 14.38327903201766
IRIDIUM 45 [-]          
1 25104U 97082A   20312.67314618  .00001071  00000-0  82458-4 0  9992
2 25104  86.3780 107.5345 0211107 258.1968  99.5509 14.84533469200682
